{
  "norad_id": 65504,
  "name": "STARLINK-35182",
  "history": [
    {
      "epoch": "2026-03-28T17:48:47.899584",
      "apogee_km": 475.98382991688777,
      "perigee_km": 474.40125905847526,
      "latitude_deg": -48.52384784885838,
      "longitude_deg": 81.65322175994515,
      "semi_major_axis_km": 6853.329544487681,
      "eccentricity": 0.00011546,
      "inclination_deg": 53.1595,
      "raan_deg": 182.7427,
      "arg_perigee_deg": 95.7022,
      "mean_anomaly_deg": 264.4111,
      "mean_motion_rev_day": 15.30207544
    }
  ]
}